SZ-21 MODULE            
1 66515U 25246C   25334.77516894  .00028896  00000+0  32879-3 0  9990
2 66515  41.4762  88.9853 0005518 188.5399 171.5347 15.61627193  2575
SHENZHOU-22             
1 66645U 25272A   25334.60566182  .00016368  00000+0  21219-3 0  9997
2 66645  41.4666  90.3296 0010499 300.6819  59.2984 15.58433763261994
CZ-2F R/B               
1 66646U 25272B   25330.47076975  .00449059  75676-5  29319-3 0  9998
2 66646  41.4431 114.9009 0121079 133.7676 227.3272 16.01945612   217
SOYUZ-MS 28             
1 66664U 25275A   25334.54411181  .00007982  00000+0  15180-3 0  9994
2 66664  51.6312 202.8529 0003690 187.0517 173.0420 15.49206887   550
