{
  "type": "FeatureCollection",
  "features": [
    {
      "type": "Feature",
      "properties": {
        "norad_id": 66515,
        "name": "SZ-21 MODULE",
        "group": "stations",
        "lat": NaN,
        "lon": NaN,
        "alt_km": NaN,
        "timestamp": "2025-12-01T02:46:51.966568+00:00",
        "meta": {
          "OBJECT_NAME": "SZ-21 MODULE",
          "OBJECT_ID": "2025-246C",
          "EPOCH": "2025-11-30T18:36:14.596416",
          "MEAN_MOTION": 15.61627193,
          "ECCENTRICITY": 0.0005518,
          "INCLINATION": 41.4762,
          "RA_OF_ASC_NODE": 88.9853,
          "ARG_OF_PERICENTER": 188.5399,
          "MEAN_ANOMALY": 171.5347,
          "EPHEMERIS_TYPE": 0,
          "CLASSIFICATION_TYPE": "U",
          "NORAD_CAT_ID": 66515,
          "ELEMENT_SET_NO": 999,
          "REV_AT_EPOCH": 257,
          "BSTAR": 0.00032879,
          "MEAN_MOTION_DOT": 0.00028896,
          "MEAN_MOTION_DDOT": 0
        }
      },
      "geometry": {
        "type": "Point",
        "coordinates": [
          NaN,
          NaN
        ]
      }
    },
    {
      "type": "Feature",
      "properties": {
        "norad_id": 66645,
        "name": "SHENZHOU-22",
        "group": "stations",
        "lat": NaN,
        "lon": NaN,
        "alt_km": NaN,
        "timestamp": "2025-12-01T02:46:51.966585+00:00",
        "meta": {
          "OBJECT_NAME": "SHENZHOU-22",
          "OBJECT_ID": "2025-272A",
          "EPOCH": "2025-11-30T14:32:09.181248",
          "MEAN_MOTION": 15.58433763,
          "ECCENTRICITY": 0.00104995,
          "INCLINATION": 41.4666,
          "RA_OF_ASC_NODE": 90.3296,
          "ARG_OF_PERICENTER": 300.6819,
          "MEAN_ANOMALY": 59.2984,
          "EPHEMERIS_TYPE": 0,
          "CLASSIFICATION_TYPE": "U",
          "NORAD_CAT_ID": 66645,
          "ELEMENT_SET_NO": 999,
          "REV_AT_EPOCH": 26199,
          "BSTAR": 0.00021218928,
          "MEAN_MOTION_DOT": 0.00016368,
          "MEAN_MOTION_DDOT": 0
        }
      },
      "geometry": {
        "type": "Point",
        "coordinates": [
          NaN,
          NaN
        ]
      }
    },
    {
      "type": "Feature",
      "properties": {
        "norad_id": 66646,
        "name": "CZ-2F R/B",
        "group": "stations",
        "lat": NaN,
        "lon": NaN,
        "alt_km": NaN,
        "timestamp": "2025-12-01T02:46:51.966603+00:00",
        "meta": {
          "OBJECT_NAME": "CZ-2F R/B",
          "OBJECT_ID": "2025-272B",
          "EPOCH": "2025-11-26T11:17:54.506400",
          "MEAN_MOTION": 16.01945612,
          "ECCENTRICITY": 0.01210796,
          "INCLINATION": 41.4431,
          "RA_OF_ASC_NODE": 114.9009,
          "ARG_OF_PERICENTER": 133.7676,
          "MEAN_ANOMALY": 227.3272,
          "EPHEMERIS_TYPE": 0,
          "CLASSIFICATION_TYPE": "U",
          "NORAD_CAT_ID": 66646,
          "ELEMENT_SET_NO": 999,
          "REV_AT_EPOCH": 21,
          "BSTAR": 0.00029319366,
          "MEAN_MOTION_DOT": 0.00449059,
          "MEAN_MOTION_DDOT": 7.567612e-06
        }
      },
      "geometry": {
        "type": "Point",
        "coordinates": [
          NaN,
          NaN
        ]
      }
    },
    {
      "type": "Feature",
      "properties": {
        "norad_id": 66664,
        "name": "SOYUZ-MS 28",
        "group": "stations",
        "lat": NaN,
        "lon": NaN,
        "alt_km": NaN,
        "timestamp": "2025-12-01T02:46:51.966620+00:00",
        "meta": {
          "OBJECT_NAME": "SOYUZ-MS 28",
          "OBJECT_ID": "2025-275A",
          "EPOCH": "2025-11-30T13:03:31.260384",
          "MEAN_MOTION": 15.49206887,
          "ECCENTRICITY": 0.000369,
          "INCLINATION": 51.6312,
          "RA_OF_ASC_NODE": 202.8529,
          "ARG_OF_PERICENTER": 187.0517,
          "MEAN_ANOMALY": 173.042,
          "EPHEMERIS_TYPE": 0,
          "CLASSIFICATION_TYPE": "U",
          "NORAD_CAT_ID": 66664,
          "ELEMENT_SET_NO": 999,
          "REV_AT_EPOCH": 55,
          "BSTAR": 0.0001518,
          "MEAN_MOTION_DOT": 7.982e-05,
          "MEAN_MOTION_DDOT": 0
        }
      },
      "geometry": {
        "type": "Point",
        "coordinates": [
          NaN,
          NaN
        ]
      }
    }
  ]
}